NORAD_CAT_ID,OBJECT_NAME,OBJECT_TYPE,EPOCH,MEAN_MOTION,ECCENTRICITY,INCLINATION,RA_OF_ASC_NODE,ARG_OF_PERICENTER,MEAN_ANOMALY,BSTAR,MEAN_MOTION_DOT,MEAN_MOTION_DDOT,TLE_LINE0,TLE_LINE1,TLE_LINE2,SEMIMAJOR_AXIS,PERIOD,APOGEE,PERIGEE,DECAYED
53913.0,STARLINK-5053,PAYLOAD,2022-11-16 22:00:08,15.73424141,0.0003913,53.2172,350.917,358.9835,28.8376,-0.0023698,-0.00324056,0.0,0 STARLINK-5053,1 53913U 22119AD  22320.91675926 -.00324056  00000-0 -23698-2 0  9992,2 53913  53.2172 350.9170 0003913 358.9835  28.8376 15.73424141  1305,6727.255999999999,91.52,351.754,346.48900000000015,0.0
53913.0,STARLINK-5053,PAYLOAD,2022-11-17 04:00:00,15.73227811,0.0004092,53.2161,349.7045,354.0855,9.9047,0.00027968,0.00038872,0.0,0 STARLINK-5053,1 53913U 22119AD  22321.16667824  .00038872  00000-0  27968-3 0  9999,2 53913  53.2161 349.7045 0004092 354.0855   9.9047 15.73227811  8800,6727.816,91.532,352.434,346.92800000000005,0.0
53913.0,STARLINK-5053,PAYLOAD,2022-11-17 14:00:01,15.73247113,0.0004388999999999,53.2158,347.6443,354.8437,210.3551,0.00041477,0.00058135,0.0,0 STARLINK-5053,1 53913U 22119AD  22321.58334491  .00058135  00000-0  41477-3 0  9991,2 53913  53.2158 347.6443 0004389 354.8437 210.3551 15.73247113  1301,6727.761,91.53,352.579,346.673,0.0
53913.0,STARLINK-5053,PAYLOAD,2022-11-17 20:00:01,15.73302349,0.0004189,53.2161,346.4054,355.0326,186.919,-0.00069747,-0.00097864,0.0,0 STARLINK-5053,1 53913U 22119AD  22321.83334491 -.00097864  00000-0 -69747-3 0  9993,2 53913  53.2161 346.4054 0004189 355.0326 186.9190 15.73302349  8912,6727.603,91.527,352.287,346.65,0.0
53913.0,STARLINK-5053,PAYLOAD,2022-11-17 22:00:00,15.73208741,0.0004133,53.2159,345.9927,353.19699999999995,301.0259,0.00068522,0.00096729,0.0,0 STARLINK-5053,1 53913U 22119AD  22321.91667824  .00096729  00000-0  68522-3 0  9998,2 53913  53.2159 345.9927 0004133 353.1970 301.0259 15.73208741  1308,6727.87,91.533,352.516,346.955,0.0
53913.0,STARLINK-5053,PAYLOAD,2022-11-18 06:00:00,15.73288521,0.0004155,53.2159,344.3443,353.1468,30.0545,-0.0005143,-0.00072498,0.0,0 STARLINK-5053,1 53913U 22119AD  22322.25001157 -.00072498  00000-0 -51430-3 0  9996,2 53913  53.2159 344.3443 0004155 353.1468  30.0545 15.73288521  8971,6727.643,91.528,352.30300000000005,346.712,0.0
53913.0,STARLINK-5053,PAYLOAD,2022-11-18 14:00:01,15.73259585,0.00043,53.2151,342.6955,352.2956,119.8875,-0.00030922,-0.00043932,0.0,0 STARLINK-5053,1 53913U 22119AD  22322.58334491 -.00043932  00000-0 -30922-3 0  9996,2 53913  53.2151 342.6955 0004300 352.2956 119.8875 15.73259585  1306,6727.725,91.53,352.483,346.69699999999995,0.0
53913.0,STARLINK-5053,PAYLOAD,2022-11-18 20:00:01,15.73206333,0.000403,53.2153,341.4567,351.9142,97.0196,0.00022071,0.00030484,0.0,0 STARLINK-5053,1 53913U 22119AD  22322.83334491  .00030484  00000-0  22071-3 0  9996,2 53913  53.2153 341.4567 0004030 351.9142  97.0196 15.73206333  9075,6727.877,91.533,352.45300000000015,347.031,0.0
53913.0,STARLINK-5053,PAYLOAD,2022-11-18 22:00:00,15.73214736,0.0003985,53.2151,341.0438,352.8202,208.3545,0.00019286,0.00026556,0.0,0 STARLINK-5053,1 53913U 22119AD  22322.91667824  .00026556  00000-0  19286-3 0  9993,2 53913  53.2151 341.0438 0003985 352.8202 208.3545 15.73214736  1300,6727.853,91.532,352.399,347.037,0.0
53913.0,STARLINK-5053,PAYLOAD,2022-11-19 06:00:00,15.73237586,0.0004108,53.2153,339.3956,359.8027,290.3377,-0.0010446,-0.0014505,0.0,0 STARLINK-5053,1 53913U 22119AD  22323.25001157 -.00145050  00000-0 -10446-2 0  9993,2 53913  53.2153 339.3956 0004108 359.8027 290.3377 15.73237586  9138,6727.788000000001,91.531,352.417,346.889,0.0
53913.0,STARLINK-5053,PAYLOAD,2022-11-19 14:00:01,15.73129339,0.0004341,53.215,337.7468,3.0911,15.9543,0.00042662,0.0005952,0.0,0 STARLINK-5053,1 53913U 22119AD  22323.58334491  .00059520  00000-0  42662-3 0  9999,2 53913  53.2150 337.7468 0004341   3.0911  15.9543 15.73129339  9181,6728.097,91.537,352.88199999999995,347.041,0.0
53913.0,STARLINK-5053,PAYLOAD,2022-11-19 22:00:00,15.731496900000002,0.0004078,53.2151,336.0955,4.4512,103.4753,0.00072742,0.00102534,0.0,0 STARLINK-5053,1 53913U 22119AD  22323.91667824  .00102534  00000-0  72742-3 0  9991,2 53913  53.2151 336.0955 0004078   4.4512 103.4753 15.73149690  1308,6728.0390000000025,91.536,352.647,347.16,0.0
53913.0,STARLINK-5053,PAYLOAD,2022-11-20 14:00:01,15.73184834,0.0004363,53.2141,332.7982,2.8418,282.9292,0.00022211,0.00030656,0.0,0 STARLINK-5053,1 53913U 22119AD  22324.58334491  .00030656  00000-0  22211-3 0  9997,2 53913  53.2141 332.7982 0004363   2.8418 282.9292 15.73184834  9346,6727.938,91.534,352.73900000000015,346.86800000000005,0.0
53913.0,STARLINK-5053,PAYLOAD,2022-11-20 22:00:00,15.73182865,0.0004064,53.2142,331.1467,2.6807,12.0237,1.4906e-05,1.467e-05,0.0,0 STARLINK-5053,1 53913U 22119AD  22324.91667824  .00001467  00000-0  14906-4 0  9994,2 53913  53.2142 331.1467 0004064   2.6807  12.0237 15.73182865  1307,6727.944,91.534,352.543,347.075,0.0
53913.0,STARLINK-5053,PAYLOAD,2022-11-21 06:00:00,15.73197692,0.0004274,53.2143,329.4987,3.2554,100.3687,0.00017518,0.0002404,0.0,0 STARLINK-5053,1 53913U 22119AD  22325.25001157  .00024040  00000-0  17518-3 0  9996,2 53913  53.2143 329.4987 0004274   3.2554 100.3687 15.73197692  9452,6727.901999999999,91.533,352.642,346.891,0.0
53913.0,STARLINK-5053,PAYLOAD,2022-11-21 14:00:01,15.73258791,0.0004329,53.2142,327.8493,2.5342,190.0186,-0.00050748,-0.00071467,0.0,0 STARLINK-5053,1 53913U 22119AD  22325.58334491 -.00071467  00000-0 -50748-3 0  9991,2 53913  53.2142 327.8493 0004329   2.5342 190.0186 15.73258791  1307,6727.728,91.53,352.505,346.68,0.0
53913.0,STARLINK-5053,PAYLOAD,2022-11-21 22:00:00,15.73186349,0.0004071,53.2142,326.1977,2.0154,279.5199,0.00070182,0.00099018,0.0,0 STARLINK-5053,1 53913U 22119AD  22325.91667824  .00099018  00000-0  70182-3 0  9991,2 53913  53.2142 326.1977 0004071   2.0154 279.5199 15.73186349  1302,6727.934,91.534,352.538,347.06,0.0
53913.0,STARLINK-5053,PAYLOAD,2022-11-22 06:00:02,15.73262357,0.0004209,53.2139,324.5498,1.5987,8.9576,-0.00052649,-0.00074106,0.0,0 STARLINK-5053,1 53913U 22119AD  22326.25002315 -.00074106  00000-0 -52649-3 0  9998,2 53913  53.2139 324.5498 0004209   1.5987   8.9576 15.73262357  9607,6727.717,91.53,352.414,346.751,0.0
53913.0,STARLINK-5053,PAYLOAD,2022-11-22 14:00:01,15.73211079,0.0004243,53.2133,322.8999,359.5815,99.9184,-0.0003929,-0.00055461,0.0,0 STARLINK-5053,1 53913U 22119AD  22326.58335648 -.00055461  00000-0 -39290-3 0  9992,2 53913  53.2133 322.8999 0004243 359.5815  99.9184 15.73211079  1301,6727.864000000001,91.533,352.583,346.874,0.0
53913.0,STARLINK-5053,PAYLOAD,2022-11-22 22:00:00,15.731714300000002,0.0003928,53.2134,321.2485,0.7923,187.5595,0.00037751,0.00052645,0.0,0 STARLINK-5053,1 53913U 22119AD  22326.91667824  .00052645  00000-0  37751-3 0  9992,2 53913  53.2134 321.2485 0003928   0.7923 187.5595 15.73171430  1305,6727.977,91.535,352.4840000000001,347.199,0.0
53913.0,STARLINK-5053,PAYLOAD,2022-11-23 06:00:00,15.73186979,0.0004201,53.2136,319.6008,4.6041,272.6732,-9.8942e-05,-0.00014486,0.0,0 STARLINK-5053,1 53913U 22119AD  22327.25001157 -.00014486  00000-0 -98942-4 0  9994,2 53913  53.2136 319.6008 0004201   4.6041 272.6732 15.73186979  9769,6727.932,91.534,352.624,346.971,0.0
53913.0,STARLINK-5053,PAYLOAD,2022-11-23 14:00:01,15.73199675,0.0004264,53.2137,317.9509,4.9767,1.1989,0.00012455,0.00016898,0.0,0 STARLINK-5053,1 53913U 22119AD  22327.58334491  .00016898  00000-0  12455-3 0  9991,2 53913  53.2137 317.9509 0004264   4.9767   1.1989 15.73199675  1302,6727.896,91.533,352.63,346.892,0.0
53913.0,STARLINK-5053,PAYLOAD,2022-11-23 22:00:00,15.7322044,0.0004029,53.2138,316.2995,5.8753,89.2398,-0.0001267,-0.00018392,0.0,0 STARLINK-5053,1 53913U 22119AD  22327.91667824 -.00018392  00000-0 -12670-3 0  9999,2 53913  53.2138 316.2995 0004029   5.8753  89.2398 15.73220440  9874,6727.837,91.532,352.413,346.991,0.0
53913.0,STARLINK-5053,PAYLOAD,2022-11-24 14:00:01,15.73274383,0.000417,53.2134,313.0005,4.5297,268.4534,-0.0006849,-0.00096018,0.0,0 STARLINK-5053,1 53913U 22119AD  22328.58334491 -.00096018  00000-0 -68490-3 0  9996,2 53913  53.2134 313.0005 0004170   4.5297 268.4534 15.73274383  9972,6727.683000000001,91.529,352.35400000000016,346.74300000000005,0.0
53913.0,STARLINK-5053,PAYLOAD,2022-11-24 22:00:00,15.73360728,0.0003764,53.215,311.3353,354.6886,7.255,-0.0036028,-0.00482031,0.0,0 STARLINK-5053,1 53913U 22119AD  22328.91667824 -.00482031  00000-0 -36028-2 0  9997,2 53913  53.2150 311.3353 0003764 354.6886   7.2550 15.73360728  1303,6727.437,91.524,351.834,346.77,0.0
53913.0,STARLINK-5053,PAYLOAD,2022-11-25 06:00:00,15.73117851,0.0003426,53.2167,309.6784,325.0378,125.8197,-0.0061865,-0.00789504,0.0,0 STARLINK-5053,1 53913U 22119AD  22329.25001157 -.00789504  00000-0 -61865-2 0  9998,2 53913  53.2167 309.6784 0003426 325.0378 125.8197 15.73117851 10088,6728.129,91.538,352.2990000000001,347.689,0.0
53913.0,STARLINK-5053,PAYLOAD,2022-11-25 14:00:01,15.725339300000002,0.0004463,53.2166,308.027,292.8398,246.5221,-0.0091098,-0.01112937,0.0,0 STARLINK-5053,1 53913U 22119AD  22329.58334491 -.01112937  00000-0 -91098-2 0  9996,2 53913  53.2166 308.0270 0004463 292.8398 246.5221 15.72533930 10139,6729.795,91.572,354.663,348.656,0.0
53913.0,STARLINK-5053,PAYLOAD,2022-11-25 22:00:00,15.71774299,0.0006471,53.2168,306.3806,274.4733,352.5005,-0.010099,-0.01186628,0.0,0 STARLINK-5053,1 53913U 22119AD  22329.91667824 -.01186628  00000-0 -10099-1 0  9991,2 53913  53.2168 306.3806 0006471 274.4733 352.5005 15.71774299  1308,6731.9630000000025,91.616,358.184,349.472,0.0
53913.0,STARLINK-5053,PAYLOAD,2022-11-26 06:00:00,15.70954027,0.0006735,53.2171,304.7378,270.6968,82.9366,-0.010316,-0.01172494,0.0,0 STARLINK-5053,1 53913U 22119AD  22330.25001157 -.01172494  00000-0 -10316-1 0  9999,2 53913  53.2171 304.7378 0006735 270.6968  82.9366 15.70954027 10233,6734.306,91.664,360.707,351.636,0.0
